CCSDS_OMM_VERS = 2.0
CREATION_DATE  = 
ORIGINATOR     = 

OBJECT_NAME    = SL-14 R/B
OBJECT_ID      = 1991-042B
CENTER_NAME    = EARTH
REF_FRAME      = TEME
TIME_SYSTEM    = UTC
MEAN_ELEMENT_THEORY = SGP/SGP4

EPOCH          = 2025-12-17T07:21:22.353408
MEAN_MOTION    = 14.81743181
ECCENTRICITY   = .00178383
INCLINATION    = 82.4931
RA_OF_ASC_NODE = 297.4406
ARG_OF_PERICENTER = 147.2781
MEAN_ANOMALY   = 212.9542

EPHEMERIS_TYPE = 0
CLASSIFICATION_TYPE = U
NORAD_CAT_ID   = 21423
ELEMENT_SET_NO = 999
REV_AT_EPOCH   = 84087
BSTAR          = .47268773E-4
MEAN_MOTION_DOT = .397E-5
MEAN_MOTION_DDOT = 0

CCSDS_OMM_VERS = 2.0
CREATION_DATE  = 
ORIGINATOR     = 

OBJECT_NAME    = ERS-1
OBJECT_ID      = 1991-050A
CENTER_NAME    = EARTH
REF_FRAME      = TEME
TIME_SYSTEM    = UTC
MEAN_ELEMENT_THEORY = SGP/SGP4

EPOCH          = 2025-12-17T07:47:50.989344
MEAN_MOTION    = 14.39368379
ECCENTRICITY   = .00330355
INCLINATION    = 98.7902
RA_OF_ASC_NODE = 2.4944
ARG_OF_PERICENTER = 86.8609
MEAN_ANOMALY   = 273.6357

EPHEMERIS_TYPE = 0
CLASSIFICATION_TYPE = U
NORAD_CAT_ID   = 21574
ELEMENT_SET_NO = 999
REV_AT_EPOCH   = 80388
BSTAR          = .10924671E-3
MEAN_MOTION_DOT = .296E-5
MEAN_MOTION_DDOT = 0

CCSDS_OMM_VERS = 2.0
CREATION_DATE  = 
ORIGINATOR     = 

OBJECT_NAME    = ARIANE 40 R/B
OBJECT_ID      = 1991-050F
CENTER_NAME    = EARTH
REF_FRAME      = TEME
TIME_SYSTEM    = UTC
MEAN_ELEMENT_THEORY = SGP/SGP4

EPOCH          = 2025-12-17T03:43:55.034112
MEAN_MOTION    = 14.42817051
ECCENTRICITY   = .00025212
INCLINATION    = 98.2161
RA_OF_ASC_NODE = 41.4267
ARG_OF_PERICENTER = 345.8064
MEAN_ANOMALY   = 14.3055

EPHEMERIS_TYPE = 0
CLASSIFICATION_TYPE = U
NORAD_CAT_ID   = 21610
ELEMENT_SET_NO = 999
REV_AT_EPOCH   = 80709
BSTAR          = .10350843E-3
MEAN_MOTION_DOT = .303E-5
MEAN_MOTION_DDOT = 0

CCSDS_OMM_VERS = 2.0
CREATION_DATE  = 
ORIGINATOR     = 

OBJECT_NAME    = INTERCOSMOS 25
OBJECT_ID      = 1991-086A
CENTER_NAME    = EARTH
REF_FRAME      = TEME
TIME_SYSTEM    = UTC
MEAN_ELEMENT_THEORY = SGP/SGP4

EPOCH          = 2025-12-17T06:12:37.895616
MEAN_MOTION    = 12.11743574
ECCENTRICITY   = .14864108
INCLINATION    = 82.6066
RA_OF_ASC_NODE = 359.8430
ARG_OF_PERICENTER = 294.6548
MEAN_ANOMALY   = 50.6982

EPHEMERIS_TYPE = 0
CLASSIFICATION_TYPE = U
NORAD_CAT_ID   = 21819
ELEMENT_SET_NO = 999
REV_AT_EPOCH   = 48670
BSTAR          = .38581834E-3
MEAN_MOTION_DOT = .1937E-4
MEAN_MOTION_DDOT = 0

CCSDS_OMM_VERS = 2.0
CREATION_DATE  = 
ORIGINATOR     = 

OBJECT_NAME    = SL-8 R/B
OBJECT_ID      = 1992-008B
CENTER_NAME    = EARTH
REF_FRAME      = TEME
TIME_SYSTEM    = UTC
MEAN_ELEMENT_THEORY = SGP/SGP4

EPOCH          = 2025-12-17T08:13:57.988992
MEAN_MOTION    = 13.75959997
ECCENTRICITY   = .00349074
INCLINATION    = 82.9267
RA_OF_ASC_NODE = 329.0221
ARG_OF_PERICENTER = 7.0971
MEAN_ANOMALY   = 102.4019

EPHEMERIS_TYPE = 0
CLASSIFICATION_TYPE = U
NORAD_CAT_ID   = 21876
ELEMENT_SET_NO = 999
REV_AT_EPOCH   = 69809
BSTAR          = .11582695E-3
MEAN_MOTION_DOT = .128E-5
MEAN_MOTION_DDOT = 0

CCSDS_OMM_VERS = 2.0
CREATION_DATE  = 
ORIGINATOR     = 

OBJECT_NAME    = SL-8 R/B
OBJECT_ID      = 1992-020B
CENTER_NAME    = EARTH
REF_FRAME      = TEME
TIME_SYSTEM    = UTC
MEAN_ELEMENT_THEORY = SGP/SGP4

EPOCH          = 2025-12-17T03:26:23.879616
MEAN_MOTION    = 13.75528134
ECCENTRICITY   = .00291905
INCLINATION    = 82.9300
RA_OF_ASC_NODE = 215.0476
ARG_OF_PERICENTER = 165.8600
MEAN_ANOMALY   = 308.0224

EPHEMERIS_TYPE = 0
CLASSIFICATION_TYPE = U
NORAD_CAT_ID   = 21938
ELEMENT_SET_NO = 999
REV_AT_EPOCH   = 68978
BSTAR          = .10881244E-3
MEAN_MOTION_DOT = .12E-5
MEAN_MOTION_DDOT = 0

CCSDS_OMM_VERS = 2.0
CREATION_DATE  = 
ORIGINATOR     = 

OBJECT_NAME    = USA 81
OBJECT_ID      = 1992-023A
CENTER_NAME    = EARTH
REF_FRAME      = TEME
TIME_SYSTEM    = UTC
MEAN_ELEMENT_THEORY = SGP/SGP4

EPOCH          = 2025-12-17T05:24:53.019360
MEAN_MOTION    = 14.32328534
ECCENTRICITY   = .00012428
INCLINATION    = 85.0078
RA_OF_ASC_NODE = 178.9889
ARG_OF_PERICENTER = 71.2179
MEAN_ANOMALY   = 288.9148

EPHEMERIS_TYPE = 0
CLASSIFICATION_TYPE = U
NORAD_CAT_ID   = 21949
ELEMENT_SET_NO = 999
REV_AT_EPOCH   = 8298
BSTAR          = .61253518E-4
MEAN_MOTION_DOT = .185E-5
MEAN_MOTION_DDOT = 0

CCSDS_OMM_VERS = 2.0
CREATION_DATE  = 
ORIGINATOR     = 

OBJECT_NAME    = COSMOS 2219
OBJECT_ID      = 1992-076A
CENTER_NAME    = EARTH
REF_FRAME      = TEME
TIME_SYSTEM    = UTC
MEAN_ELEMENT_THEORY = SGP/SGP4

EPOCH          = 2025-12-16T23:15:20.265120
MEAN_MOTION    = 14.14063206
ECCENTRICITY   = .00191476
INCLINATION    = 71.0571
RA_OF_ASC_NODE = 190.9917
ARG_OF_PERICENTER = 321.1380
MEAN_ANOMALY   = 38.8365

EPHEMERIS_TYPE = 0
CLASSIFICATION_TYPE = U
NORAD_CAT_ID   = 22219
ELEMENT_SET_NO = 999
REV_AT_EPOCH   = 70668
BSTAR          = .85022223E-4
MEAN_MOTION_DOT = .115E-5
MEAN_MOTION_DDOT = 0

CCSDS_OMM_VERS = 2.0
CREATION_DATE  = 
ORIGINATOR     = 

OBJECT_NAME    = SL-16 R/B
OBJECT_ID      = 1992-076B
CENTER_NAME    = EARTH
REF_FRAME      = TEME
TIME_SYSTEM    = UTC
MEAN_ELEMENT_THEORY = SGP/SGP4

EPOCH          = 2025-12-17T07:06:50.782176
MEAN_MOTION    = 14.16841781
ECCENTRICITY   = .00145408
INCLINATION    = 71.0005
RA_OF_ASC_NODE = 1.9331
ARG_OF_PERICENTER = 227.8141
MEAN_ANOMALY   = 143.3203

EPHEMERIS_TYPE = 0
CLASSIFICATION_TYPE = U
NORAD_CAT_ID   = 22220
ELEMENT_SET_NO = 999
REV_AT_EPOCH   = 71016
BSTAR          = .12045474E-3
MEAN_MOTION_DOT = .194E-5
MEAN_MOTION_DDOT = 0

CCSDS_OMM_VERS = 2.0
CREATION_DATE  = 
ORIGINATOR     = 

OBJECT_NAME    = COSMOS 2221
OBJECT_ID      = 1992-080A
CENTER_NAME    = EARTH
REF_FRAME      = TEME
TIME_SYSTEM    = UTC
MEAN_ELEMENT_THEORY = SGP/SGP4

EPOCH          = 2025-12-17T07:11:55.974624
MEAN_MOTION    = 14.95778143
ECCENTRICITY   = .00162203
INCLINATION    = 82.5040
RA_OF_ASC_NODE = 357.9606
ARG_OF_PERICENTER = 107.6685
MEAN_ANOMALY   = 252.6310

EPHEMERIS_TYPE = 0
CLASSIFICATION_TYPE = U
NORAD_CAT_ID   = 22236
ELEMENT_SET_NO = 999
REV_AT_EPOCH   = 76847
BSTAR          = .1652425E-3
MEAN_MOTION_DOT = .1873E-4
MEAN_MOTION_DDOT = 0

CCSDS_OMM_VERS = 2.0
CREATION_DATE  = 
ORIGINATOR     = 

OBJECT_NAME    = SL-16 R/B
OBJECT_ID      = 1992-093B
CENTER_NAME    = EARTH
REF_FRAME      = TEME
TIME_SYSTEM    = UTC
MEAN_ELEMENT_THEORY = SGP/SGP4

EPOCH          = 2025-12-17T06:24:32.097024
MEAN_MOTION    = 14.15432782
ECCENTRICITY   = .00022724
INCLINATION    = 71.0200
RA_OF_ASC_NODE = 177.2921
ARG_OF_PERICENTER = 56.0210
MEAN_ANOMALY   = 304.1129

EPHEMERIS_TYPE = 0
CLASSIFICATION_TYPE = U
NORAD_CAT_ID   = 22285
ELEMENT_SET_NO = 999
REV_AT_EPOCH   = 70149
BSTAR          = .17396801E-3
MEAN_MOTION_DOT = .292E-5
MEAN_MOTION_DDOT = 0

CCSDS_OMM_VERS = 2.0
CREATION_DATE  = 
ORIGINATOR     = 

OBJECT_NAME    = COSMOS 2228
OBJECT_ID      = 1992-094A
CENTER_NAME    = EARTH
REF_FRAME      = TEME
TIME_SYSTEM    = UTC
MEAN_ELEMENT_THEORY = SGP/SGP4

EPOCH          = 2025-12-17T07:16:37.236000
MEAN_MOTION    = 14.96750653
ECCENTRICITY   = .00168362
INCLINATION    = 82.5178
RA_OF_ASC_NODE = 316.1676
ARG_OF_PERICENTER = 214.9775
MEAN_ANOMALY   = 145.0343

EPHEMERIS_TYPE = 0
CLASSIFICATION_TYPE = U
NORAD_CAT_ID   = 22286
ELEMENT_SET_NO = 999
REV_AT_EPOCH   = 76373
BSTAR          = .17476847E-3
MEAN_MOTION_DOT = .2029E-4
MEAN_MOTION_DDOT = 0

