SL-14 R/B               
1 21423U 91042B   25351.30650872  .00000397  00000+0  47269-4 0  9995
2 21423  82.4931 297.4406 0017838 147.2781 212.9542 14.81743181840870
ERS-1                   
1 21574U 91050A   25351.32489571  .00000296  00000+0  10925-3 0  9995
2 21574  98.7902   2.4944 0033035  86.8609 273.6357 14.39368379803883
ARIANE 40 R/B           
1 21610U 91050F   25351.15549808  .00000303  00000+0  10351-3 0  9999
2 21610  98.2161  41.4267 0002521 345.8064  14.3055 14.42817051807098
INTERCOSMOS 25          
1 21819U 91086A   25351.25877194  .00001937  00000+0  38582-3 0  9992
2 21819  82.6066 359.8430 1486410 294.6548  50.6982 12.11743574486705
SL-8 R/B                
1 21876U 92008B   25351.34303228  .00000128  00000+0  11583-3 0  9995
2 21876  82.9267 329.0221 0034907   7.0971 102.4019 13.75959997698099
SL-8 R/B                
1 21938U 92020B   25351.14333194  .00000120  00000+0  10881-3 0  9993
2 21938  82.9300 215.0476 0029190 165.8600 308.0224 13.75528134689785
USA 81                  
1 21949U 92023A   25351.22561365  .00000185  00000+0  61254-4 0  9992
2 21949  85.0078 178.9889 0001242  71.2179 288.9148 14.32328534 82983
COSMOS 2219             
1 22219U 92076A   25350.96898455  .00000115  00000+0  85022-4 0  9996
2 22219  71.0571 190.9917 0019147 321.1380  38.8365 14.14063206706682
SL-16 R/B               
1 22220U 92076B   25351.29642109  .00000194  00000+0  12045-3 0  9999
2 22220  71.0005   1.9331 0014540 227.8141 143.3203 14.16841781710161
COSMOS 2221             
1 22236U 92080A   25351.29995341  .00001873  00000+0  16524-3 0  9991
2 22236  82.5040 357.9606 0016220 107.6685 252.6310 14.95778143768476
SL-16 R/B               
1 22285U 92093B   25351.26703816  .00000292  00000+0  17397-3 0  9993
2 22285  71.0200 177.2921 0002272  56.0210 304.1129 14.15432782701495
COSMOS 2228             
1 22286U 92094A   25351.30320875  .00002029  00000+0  17477-3 0  9999
2 22286  82.5178 316.1676 0016836 214.9775 145.0343 14.96750653763734
